CCSDS_OMM_VERS = 2.0
CREATION_DATE  = 
ORIGINATOR     = 

OBJECT_NAME    = ATLAS CENTAUR R/B
OBJECT_ID      = 1972-065B
CENTER_NAME    = EARTH
REF_FRAME      = TEME
TIME_SYSTEM    = UTC
MEAN_ELEMENT_THEORY = SGP/SGP4

EPOCH          = 2026-02-24T23:46:40.433664
MEAN_MOTION    = 14.77644313
ECCENTRICITY   = .0034463
INCLINATION    = 35.0027
RA_OF_ASC_NODE = 20.1700
ARG_OF_PERICENTER = 263.3088
MEAN_ANOMALY   = 96.3689

EPHEMERIS_TYPE = 0
CLASSIFICATION_TYPE = U
NORAD_CAT_ID   = 6155
ELEMENT_SET_NO = 999
REV_AT_EPOCH   = 83938
BSTAR          = .16761E-3
MEAN_MOTION_DOT = .1208E-4
MEAN_MOTION_DDOT = 0

CCSDS_OMM_VERS = 2.0
CREATION_DATE  = 
ORIGINATOR     = 

OBJECT_NAME    = SL-8 R/B
OBJECT_ID      = 1975-112B
CENTER_NAME    = EARTH
REF_FRAME      = TEME
TIME_SYSTEM    = UTC
MEAN_ELEMENT_THEORY = SGP/SGP4

EPOCH          = 2026-02-25T02:54:56.683296
MEAN_MOTION    = 14.38195326
ECCENTRICITY   = .0014751
INCLINATION    = 74.0603
RA_OF_ASC_NODE = 42.0315
ARG_OF_PERICENTER = 140.2174
MEAN_ANOMALY   = 220.0065

EPHEMERIS_TYPE = 0
CLASSIFICATION_TYPE = U
NORAD_CAT_ID   = 8459
ELEMENT_SET_NO = 999
REV_AT_EPOCH   = 63006
BSTAR          = .58897E-4
MEAN_MOTION_DOT = .153E-5
MEAN_MOTION_DDOT = 0

CCSDS_OMM_VERS = 2.0
CREATION_DATE  = 
ORIGINATOR     = 

OBJECT_NAME    = SL-3 R/B
OBJECT_ID      = 1977-057B
CENTER_NAME    = EARTH
REF_FRAME      = TEME
TIME_SYSTEM    = UTC
MEAN_ELEMENT_THEORY = SGP/SGP4

EPOCH          = 2026-02-25T03:45:22.987584
MEAN_MOTION    = 15.45089687
ECCENTRICITY   = .0006729
INCLINATION    = 97.5758
RA_OF_ASC_NODE = 227.5306
ARG_OF_PERICENTER = 336.4707
MEAN_ANOMALY   = 23.6233

EPHEMERIS_TYPE = 0
CLASSIFICATION_TYPE = U
NORAD_CAT_ID   = 10114
ELEMENT_SET_NO = 999
REV_AT_EPOCH   = 66639
BSTAR          = .24668E-3
MEAN_MOTION_DOT = .11583E-3
MEAN_MOTION_DDOT = 0

CCSDS_OMM_VERS = 2.0
CREATION_DATE  = 
ORIGINATOR     = 

OBJECT_NAME    = SEASAT 1
OBJECT_ID      = 1978-064A
CENTER_NAME    = EARTH
REF_FRAME      = TEME
TIME_SYSTEM    = UTC
MEAN_ELEMENT_THEORY = SGP/SGP4

EPOCH          = 2026-02-25T01:04:53.986656
MEAN_MOTION    = 14.46148978
ECCENTRICITY   = .0002003
INCLINATION    = 108.0140
RA_OF_ASC_NODE = 98.9651
ARG_OF_PERICENTER = 290.7088
MEAN_ANOMALY   = 69.3843

EPHEMERIS_TYPE = 0
CLASSIFICATION_TYPE = U
NORAD_CAT_ID   = 10967
ELEMENT_SET_NO = 999
REV_AT_EPOCH   = 50468
BSTAR          = .85631E-4
MEAN_MOTION_DOT = .169E-5
MEAN_MOTION_DDOT = 0

CCSDS_OMM_VERS = 2.0
CREATION_DATE  = 
ORIGINATOR     = 

OBJECT_NAME    = SL-14 R/B
OBJECT_ID      = 1979-011B
CENTER_NAME    = EARTH
REF_FRAME      = TEME
TIME_SYSTEM    = UTC
MEAN_ELEMENT_THEORY = SGP/SGP4

EPOCH          = 2026-02-25T04:08:21.733728
MEAN_MOTION    = 14.91891292
ECCENTRICITY   = .0017634
INCLINATION    = 82.5228
RA_OF_ASC_NODE = 108.4505
ARG_OF_PERICENTER = 98.8580
MEAN_ANOMALY   = 261.4637

EPHEMERIS_TYPE = 0
CLASSIFICATION_TYPE = U
NORAD_CAT_ID   = 11267
ELEMENT_SET_NO = 999
REV_AT_EPOCH   = 52691
BSTAR          = .44782E-4
MEAN_MOTION_DOT = .48E-5
MEAN_MOTION_DDOT = 0

CCSDS_OMM_VERS = 2.0
CREATION_DATE  = 
ORIGINATOR     = 

OBJECT_NAME    = SL-8 R/B
OBJECT_ID      = 1979-089B
CENTER_NAME    = EARTH
REF_FRAME      = TEME
TIME_SYSTEM    = UTC
MEAN_ELEMENT_THEORY = SGP/SGP4

EPOCH          = 2026-02-25T04:35:38.664672
MEAN_MOTION    = 14.42341990
ECCENTRICITY   = .0017031
INCLINATION    = 74.0681
RA_OF_ASC_NODE = 114.1810
ARG_OF_PERICENTER = 288.1633
MEAN_ANOMALY   = 71.7668

EPHEMERIS_TYPE = 0
CLASSIFICATION_TYPE = U
NORAD_CAT_ID   = 11574
ELEMENT_SET_NO = 999
REV_AT_EPOCH   = 43430
BSTAR          = .68751E-4
MEAN_MOTION_DOT = .201E-5
MEAN_MOTION_DDOT = 0

CCSDS_OMM_VERS = 2.0
CREATION_DATE  = 
ORIGINATOR     = 

OBJECT_NAME    = SL-14 R/B
OBJECT_ID      = 1980-005B
CENTER_NAME    = EARTH
REF_FRAME      = TEME
TIME_SYSTEM    = UTC
MEAN_ELEMENT_THEORY = SGP/SGP4

EPOCH          = 2026-02-25T04:15:15.746112
MEAN_MOTION    = 14.90912735
ECCENTRICITY   = .0015047
INCLINATION    = 82.5165
RA_OF_ASC_NODE = 319.1032
ARG_OF_PERICENTER = 199.9210
MEAN_ANOMALY   = 160.1424

EPHEMERIS_TYPE = 0
CLASSIFICATION_TYPE = U
NORAD_CAT_ID   = 11672
ELEMENT_SET_NO = 999
REV_AT_EPOCH   = 47462
BSTAR          = .51312E-4
MEAN_MOTION_DOT = .532E-5
MEAN_MOTION_DDOT = 0

CCSDS_OMM_VERS = 2.0
CREATION_DATE  = 
ORIGINATOR     = 

OBJECT_NAME    = SL-8 R/B
OBJECT_ID      = 1981-003B
CENTER_NAME    = EARTH
REF_FRAME      = TEME
TIME_SYSTEM    = UTC
MEAN_ELEMENT_THEORY = SGP/SGP4

EPOCH          = 2026-02-25T03:36:37.570176
MEAN_MOTION    = 15.10456588
ECCENTRICITY   = .0262714
INCLINATION    = 82.9396
RA_OF_ASC_NODE = 301.6143
ARG_OF_PERICENTER = 222.2187
MEAN_ANOMALY   = 135.8555

EPHEMERIS_TYPE = 0
CLASSIFICATION_TYPE = U
NORAD_CAT_ID   = 12139
ELEMENT_SET_NO = 999
REV_AT_EPOCH   = 31278
BSTAR          = .38907E-3
MEAN_MOTION_DOT = .14931E-3
MEAN_MOTION_DDOT = 0

CCSDS_OMM_VERS = 2.0
CREATION_DATE  = 
ORIGINATOR     = 

OBJECT_NAME    = SL-3 R/B
OBJECT_ID      = 1981-046B
CENTER_NAME    = EARTH
REF_FRAME      = TEME
TIME_SYSTEM    = UTC
MEAN_ELEMENT_THEORY = SGP/SGP4

EPOCH          = 2026-02-25T03:05:48.286176
MEAN_MOTION    = 15.41621204
ECCENTRICITY   = .0020543
INCLINATION    = 81.2322
RA_OF_ASC_NODE = 304.8217
ARG_OF_PERICENTER = 64.1964
MEAN_ANOMALY   = 296.1395

EPHEMERIS_TYPE = 0
CLASSIFICATION_TYPE = U
NORAD_CAT_ID   = 12465
ELEMENT_SET_NO = 999
REV_AT_EPOCH   = 43649
BSTAR          = .24496E-3
MEAN_MOTION_DOT = .10419E-3
MEAN_MOTION_DDOT = 0

CCSDS_OMM_VERS = 2.0
CREATION_DATE  = 
ORIGINATOR     = 

OBJECT_NAME    = SL-3 R/B
OBJECT_ID      = 1981-103B
CENTER_NAME    = EARTH
REF_FRAME      = TEME
TIME_SYSTEM    = UTC
MEAN_ELEMENT_THEORY = SGP/SGP4

EPOCH          = 2026-02-25T03:26:50.214336
MEAN_MOTION    = 15.21202277
ECCENTRICITY   = .00128
INCLINATION    = 81.1570
RA_OF_ASC_NODE = 228.1489
ARG_OF_PERICENTER = 331.2839
MEAN_ANOMALY   = 28.7686

EPHEMERIS_TYPE = 0
CLASSIFICATION_TYPE = U
NORAD_CAT_ID   = 12904
ELEMENT_SET_NO = 999
REV_AT_EPOCH   = 97132
BSTAR          = .23206E-3
MEAN_MOTION_DOT = .521E-4
MEAN_MOTION_DDOT = 0

CCSDS_OMM_VERS = 2.0
CREATION_DATE  = 
ORIGINATOR     = 

OBJECT_NAME    = SL-3 R/B
OBJECT_ID      = 1982-013B
CENTER_NAME    = EARTH
REF_FRAME      = TEME
TIME_SYSTEM    = UTC
MEAN_ELEMENT_THEORY = SGP/SGP4

EPOCH          = 2026-02-25T03:46:08.374368
MEAN_MOTION    = 15.21861958
ECCENTRICITY   = .0021994
INCLINATION    = 81.1759
RA_OF_ASC_NODE = 175.4545
ARG_OF_PERICENTER = 220.1112
MEAN_ANOMALY   = 139.8497

EPHEMERIS_TYPE = 0
CLASSIFICATION_TYPE = U
NORAD_CAT_ID   = 13068
ELEMENT_SET_NO = 999
REV_AT_EPOCH   = 40244
BSTAR          = .20105E-3
MEAN_MOTION_DOT = .4626E-4
MEAN_MOTION_DDOT = 0

CCSDS_OMM_VERS = 2.0
CREATION_DATE  = 
ORIGINATOR     = 

OBJECT_NAME    = SL-3 R/B
OBJECT_ID      = 1982-039B
CENTER_NAME    = EARTH
REF_FRAME      = TEME
TIME_SYSTEM    = UTC
MEAN_ELEMENT_THEORY = SGP/SGP4

EPOCH          = 2026-02-25T03:11:29.412384
MEAN_MOTION    = 15.09997044
ECCENTRICITY   = .0029954
INCLINATION    = 81.1588
RA_OF_ASC_NODE = 230.4375
ARG_OF_PERICENTER = 5.4328
MEAN_ANOMALY   = 354.7216

EPHEMERIS_TYPE = 0
CLASSIFICATION_TYPE = U
NORAD_CAT_ID   = 13154
ELEMENT_SET_NO = 999
REV_AT_EPOCH   = 37974
BSTAR          = .13471E-3
MEAN_MOTION_DOT = .2234E-4
MEAN_MOTION_DDOT = 0

