ATLAS CENTAUR R/B       
1 06155U 72065B   26055.99074576  .00001208  00000+0  16761-3 0  9996
2 06155  35.0027  20.1700 0034463 263.3088  96.3689 14.77644313839388
SL-8 R/B                
1 08459U 75112B   26056.12148939  .00000153  00000+0  58897-4 0  9997
2 08459  74.0603  42.0315 0014751 140.2174 220.0065 14.38195326630062
SL-3 R/B                
1 10114U 77057B   26056.15651606  .00011583  00000+0  24668-3 0  9998
2 10114  97.5758 227.5306 0006729 336.4707  23.6233 15.45089687666391
SEASAT 1                
1 10967U 78064A   26056.04506929  .00000169  00000+0  85631-4 0  9994
2 10967 108.0140  98.9651 0002003 290.7088  69.3843 14.46148978504684
SL-14 R/B               
1 11267U 79011B   26056.17247377  .00000480  00000+0  44782-4 0  9992
2 11267  82.5228 108.4505 0017634  98.8580 261.4637 14.91891292526916
SL-8 R/B                
1 11574U 79089B   26056.19141973  .00000201  00000+0  68751-4 0  9998
2 11574  74.0681 114.1810 0017031 288.1633  71.7668 14.42341990434301
SL-14 R/B               
1 11672U 80005B   26056.17726558  .00000532  00000+0  51312-4 0  9995
2 11672  82.5165 319.1032 0015047 199.9210 160.1424 14.90912735474625
SL-8 R/B                
1 12139U 81003B   26056.15043484  .00014931  00000+0  38907-3 0  9993
2 12139  82.9396 301.6143 0262714 222.2187 135.8555 15.10456588312785
SL-3 R/B                
1 12465U 81046B   26056.12903109  .00010419  00000+0  24496-3 0  9993
2 12465  81.2322 304.8217 0020543  64.1964 296.1395 15.41621204436494
SL-3 R/B                
1 12904U 81103B   26056.14363674  .00005210  00000+0  23206-3 0  9995
2 12904  81.1570 228.1489 0012800 331.2839  28.7686 15.21202277971322
SL-3 R/B                
1 13068U 82013B   26056.15704137  .00004626  00000+0  20105-3 0  9997
2 13068  81.1759 175.4545 0021994 220.1112 139.8497 15.21861958402447
SL-3 R/B                
1 13154U 82039B   26056.13297931  .00002234  00000+0  13471-3 0  9999
2 13154  81.1588 230.4375 0029954   5.4328 354.7216 15.09997044379748
